Business Name,Address,City,State,ZIP,Phone Number,Email,Website URL,Google Maps URL
"Roadway Towing and Services","2727 S Beech Daly St, Dearborn Heights, MI 48125","Dearborn Heights","MI","48125","(313) 522-5200","","roadwaytowingmi.com","https://www.google.com/maps/place/Roadway+Towing+and+Services/data=!4m7!3m6!1s0x8824ccaa356bffff:0xb2b560dbc9d43862!8m2!3d42.2920536!4d-83.2898828!16s%2Fg%2F11h3vc40d3!19sChIJ__9rNarMJIgRYjjUydtgtbI?authuser=0&hl=en&rclk=1"
"West Michigan Towing","4207 Lincoln Rd, 2479 Van Ommen Dr, Holland, MI 49424","Holland","MI","49424","(616) 394-9641","","westmichigantowingmi.com","https://www.google.com/maps/place/West+Michigan+Towing/data=!4m7!3m6!1s0x881992ca94f123bf:0xe334944c66e4ba79!8m2!3d42.727209!4d-86.053759!16s%2Fg%2F1tdbxc8p!19sChIJvyPxlMqSGYgRebrkZkyUNOM?authuser=0&hl=en&rclk=1"
"Phelps Towing Inc.","4257 Page Ave, Michigan Center, MI 49254","Michigan Center","MI","49254","(517) 764-1921","","phelpstowing.com","https://www.google.com/maps/place/Phelps+Towing+Inc./data=!4m7!3m6!1s0x883d260c16238121:0xce70ee1dd96327a!8m2!3d42.2343726!4d-84.3365389!16s%2Fg%2F12hqbc5ym!19sChIJIYEjFgwmPYgRejKW3eEO5ww?authuser=0&hl=en&rclk=1"
"Fifelski Towing & Recovery","1486 142nd Ave, Dorr, MI 49323","Dorr","MI","49323","(616) 681-9620","","fifelskitowing.com","https://www.google.com/maps/place/Fifelski+Towing+%26+Recovery/data=!4m7!3m6!1s0x8819c99f59514231:0xd76f859b450881a7!8m2!3d42.7240457!4d-85.6905993!16s%2Fg%2F11q_92vq72!19sChIJMUJRWZ_JGYgRp4EIRZuFb9c?authuser=0&hl=en&rclk=1"
"Team Brickyard","1721 Park Dr, Traverse City, MI 49686","Traverse City","MI","49686","(231) 947-8697","","brickyardtowing.com","https://www.google.com/maps/place/Team+Brickyard/data=!4m7!3m6!1s0x881e32cb9643c6c3:0x56f659ea50cb33bf!8m2!3d44.7363891!4d-85.6101358!16s%2Fg%2F1hm3047rv!19sChIJw8ZDlssyHogRvzPLUOpZ9lY?authuser=0&hl=en&rclk=1"
"Byers Wrecker Service","399 South St, Rochester, MI 48307","Rochester","MI","48307","(248) 651-4180","","byerswrecker.com","https://www.google.com/maps/place/Byers+Wrecker+Service/data=!4m7!3m6!1s0x8824e9ca9df6dae5:0x35d2b251b939633c!8m2!3d42.6763507!4d-83.1240795!16s%2Fg%2F1hc629glj!19sChIJ5dr2ncrpJIgRPGM5uVGy0jU?authuser=0&hl=en&rclk=1"
"Sparta Towing & Recovery - Main","100 Loomis St, Sparta, MI 49345","Sparta","MI","49345","(616) 887-8008","","spartatowing.com","https://www.google.com/maps/place/Sparta+Towing+%26+Recovery+-+Main/data=!4m7!3m6!1s0x881906bcd52c0f81:0xcbf6175b7d5616db!8m2!3d43.161891!4d-85.702193!16s%2Fg%2F1tfzbt31!19sChIJgQ8s1bwGGYgR2xZWfVsX9ss?authuser=0&hl=en&rclk=1"
"Van's Towing & Transport","29191 Groesbeck Hwy, Roseville, MI 48066","Roseville","MI","48066","(586) 775-5500","","vanstowing.com","https://www.google.com/maps/place/Van%27s+Towing+%26+Transport/data=!4m7!3m6!1s0x8824d9b60a9410cf:0xc749d091ebc6fcae!8m2!3d42.510467!4d-82.957498!16s%2Fg%2F1v76_8sf!19sChIJzxCUCrbZJIgRrvzG65HQScc?authuser=0&hl=en&rclk=1"
"P.J.'s Towing","1425 Rensen St, Lansing, MI 48910","Lansing","MI","48910","(517) 886-4000","","pjtows.com","https://www.google.com/maps/place/P.J.%27s+Towing/data=!4m7!3m6!1s0x8822c17a99b024a7:0x2a3681249d520ee4!8m2!3d42.6861621!4d-84.5321628!16s%2Fg%2F11r8msyr1!19sChIJpySwmXrBIogR5A5SnSSBNio?authuser=0&hl=en&rclk=1"
"Green's 24 Hour Towing","1504 N Fancher St, Mt Pleasant, MI 48858","Mt Pleasant","MI","48858","(989) 772-5454","","greens24hrtowing.com","https://www.google.com/maps/place/Green%27s+24+Hour+Towing/data=!4m7!3m6!1s0x88221cb4de35a0bf:0xc9c01dbb454d51b7!8m2!3d43.617841!4d-84.7714529!16s%2Fg%2F1tqyg3bv!19sChIJv6A13rQcIogRt1FNRbsdwMk?authuser=0&hl=en&rclk=1"
"Joe Ballor Towing Inc.","57760 Main St, New Haven, MI 48048","New Haven","MI","48048","(586) 749-5117","","joeballortowing.com","https://www.google.com/maps/place/Joe+Ballor+Towing+Inc./data=!4m7!3m6!1s0x88251bc34a1f8679:0xd6294a5dd7bf1bfe!8m2!3d42.7252797!4d-82.7953196!16s%2Fg%2F1tdvkt78!19sChIJeYYfSsMbJYgR_hu_111KKdY?authuser=0&hl=en&rclk=1"
"Flat Rate Towing & Service","4011 N Dort Hwy, Flint, MI 48506","Flint","MI","48506","(810) 397-8939","","flatratetowingflint.com","https://www.google.com/maps/place/Flat+Rate+Towing+%26+Service/data=!4m7!3m6!1s0x882383bddf1ae6e5:0x62fd1f6eeaa7404d!8m2!3d43.0497587!4d-83.6627005!16s%2Fg%2F11f5r70gcv!19sChIJ5eYa372DI4gRTUCn6m4f_WI?authuser=0&hl=en&rclk=1"
"Goch & Son's Towing","750 S Deacon St, Detroit, MI 48217","Detroit","MI","48217","(313) 382-2727","","gochtowing.com","https://www.google.com/maps/place/Goch+%26+Son%27s+Towing/data=!4m7!3m6!1s0x883b33ed30be755b:0x363a458fd9463f6b!8m2!3d42.2822216!4d-83.142259!16s%2Fg%2F1tcwm6xd!19sChIJW3W-MO0zO4gRaz9G2Y9FOjY?authuser=0&hl=en&rclk=1"
"Sakstrup's Towing","5600 S State Rd, Ann Arbor, MI 48108","Ann Arbor","MI","48108","(734) 971-5400","","sakstrupstowing.com","https://www.google.com/maps/place/Sakstrup%27s+Towing/data=!4m7!3m6!1s0x883ca56c3abd40c9:0x125bd5eb3bfd70a0!8m2!3d42.2066285!4d-83.7357502!16s%2Fg%2F1tf2sx6x!19sChIJyUC9OmylPIgRoHD9O-vVWxI?authuser=0&hl=en&rclk=1"
"Reed City Towing","800 S Chestnut St Suite 102, Reed City, MI 49677","Reed City","MI","49677","(231) 832-0101","","reedcitytowing.com","https://www.google.com/maps/place/Reed+City+Towing/data=!4m7!3m6!1s0x881f25e563cba187:0x43a672aa7d90dc39!8m2!3d43.8665127!4d-85.509655!16s%2Fg%2F11c60j5_mn!19sChIJh6HLY-UlH4gROdyQfapypkM?authuser=0&hl=en&rclk=1"
"Mr. Nice Guy Towing LLC","12036 Liberty St, Clio, MI 48420","Clio","MI","48420","(810) 288-9106","","mrniceguytowing.net","https://www.google.com/maps/place/Mr.+Nice+Guy+Towing+LLC/data=!4m7!3m6!1s0x88238f6da59eb8d1:0x8ea62e7bf88f2cfb!8m2!3d43.1784769!4d-83.7157848!16s%2Fg%2F11pzs9gz6f!19sChIJ0biepW2PI4gR-yyP-Hsupo4?authuser=0&hl=en&rclk=1"
"Grand Valley Towing and Transport","0-199 Lake Michigan Dr Suite B, Grand Rapids, MI 49534","Grand Rapids","MI","49534","(616) 644-7601","","grandvalleytowing.com","https://www.google.com/maps/place/Grand+Valley+Towing+and+Transport/data=!4m7!3m6!1s0x837a8b60261ac1f:0x2352d3a1f6be1785!8m2!3d42.9724355!4d-85.7895481!16s%2Fg%2F11spmpzbyn!19sChIJH6xhAraoNwgRhRe-9qHTUiM?authuser=0&hl=en&rclk=1"
"Blk Knights Towing And Recovery","20745 Glendale St, Detroit, MI 48223","Detroit","MI","48223","(313) 766-7148","","knightstowinginc.com","https://www.google.com/maps/place/Blk+Knights+Towing+And+Recovery/data=!4m7!3m6!1s0x8824cbebf41045b5:0x3a887d3d293a96ef!8m2!3d42.3812746!4d-83.2450752!16s%2Fg%2F11sdzsz2dl!19sChIJtUUQ9OvLJIgR75Y6KT19iDo?authuser=0&hl=en&rclk=1"
"West Town Towing","1514 Saginaw St, Flint, MI 48503","Flint","MI","48503","(810) 237-1100","","westtowntow.com","https://www.google.com/maps/place/West+Town+Towing/data=!4m7!3m6!1s0x88238204782977ed:0x63771d69d1f9016c!8m2!3d43.0073183!4d-83.6826084!16s%2Fg%2F11b7rnckm6!19sChIJ7XcpeASCI4gRbAH50Wkdd2M?authuser=0&hl=en&rclk=1"
"Wright's Choice Towing and Recovery","4456 Field St, Detroit, MI 48214","Detroit","MI","48214","(313) 629-0500","","wrightschoicetowing.com","https://www.google.com/maps/place/Wright%27s+Choice+Towing+and+Recovery/data=!4m7!3m6!1s0x8824d32133a18037:0xbe717ab4f3526c0a!8m2!3d42.3707411!4d-83.0153785!16s%2Fg%2F11rq0k0nwg!19sChIJN4ChMyHTJIgRCmxS87R6cb4?authuser=0&hl=en&rclk=1"
"Allendale Towing and Wrecker Services","5245 Lake Michigan Dr, Allendale, MI 49401","Allendale","MI","49401","(616) 895-6229","","allendaletowingandwreckerservice.com","https://www.google.com/maps/place/Allendale+Towing+and+Wrecker+Services/data=!4m7!3m6!1s0x88199f6460b3eac1:0x9a7161975392f88c!8m2!3d42.973024!4d-85.9153177!16s%2Fg%2F11lg3lgb2_!19sChIJweqzYGSfGYgRjPiSU5dhcZo?authuser=0&hl=en&rclk=1"
"Taker Towing","240 E Wilson Ave, Pontiac, MI 48341","Pontiac","MI","48341","(248) 745-7499","","","https://www.google.com/maps/place/Taker+Towing/data=!4m7!3m6!1s0x8824bfc0e857987f:0x4c43e2ba3ec0b02d!8m2!3d42.6241988!4d-83.2786339!16s%2Fg%2F11qz8rl8yd!19sChIJf5hX6MC_JIgRLbDAPrriQ0w?authuser=0&hl=en&rclk=1"
"1st Class Towing","4585 Grand Haven Rd, Norton Shores, MI 49441","Norton Shores","MI","49441","(231) 767-1181","","1stclasstowingmi.com","https://www.google.com/maps/place/1st+Class+Towing/data=!4m7!3m6!1s0x88197b7c873d6705:0x70ba41c8e997edc5!8m2!3d43.1692481!4d-86.2206455!16s%2Fg%2F11bxfw22zk!19sChIJBWc9h3x7GYgRxe2X6chBunA?authuser=0&hl=en&rclk=1"
"Troy's Towing","9615 Grinnell Ave, Detroit, MI 48213","Detroit","MI","48213","(313) 579-1869","","troystowing.net","https://www.google.com/maps/place/Troy%27s+Towing/data=!4m7!3m6!1s0x8824d3eea3f302e5:0xcb4a8c5444c297dd!8m2!3d42.4020899!4d-83.0081198!16s%2Fg%2F1tg2f37f!19sChIJ5QLzo-7TJIgR3ZfCRFSMSss?authuser=0&hl=en&rclk=1"
"Northern Michigan Towing & Roadside Rescue","7702 Puttygut Rd, Casco, MI 48064","Casco","MI","48064","(586) 318-8054","","northernmichigantowingroadsiderescue.com","https://www.google.com/maps/place/Northern+Michigan+Towing+%26+Roadside+Rescue/data=!4m7!3m6!1s0xaf3df991bfb62cb5:0xf81ad081560ed0b5!8m2!3d42.7853008!4d-82.6212677!16s%2Fg%2F11l2xj1wtj!19sChIJtSy2v5H5Pa8RtdAOVoHQGvg?authuser=0&hl=en&rclk=1"
"Anytime Towing","3055 Cass Rd #205, Traverse City, MI 49684","Traverse City","MI","49684","(231) 929-8990","","anytimetowing.com","https://www.google.com/maps/place/Anytime+Towing/data=!4m7!3m6!1s0x881e3315a7d73c57:0xc3372dcd42fa218!8m2!3d44.7311994!4d-85.6269454!16s%2Fg%2F1ptxh67bm!19sChIJVzzXpxUzHogRGKIv1NxyMww?authuser=0&hl=en&rclk=1"
"Jerry's Towing & Recovery, Inc.","1381 S Evergreen Dr, White Cloud, MI 49349","White Cloud","MI","49349","(231) 652-1721","","jerrystowingmi.com","https://www.google.com/maps/place/Jerry%27s+Towing+%26+Recovery,+Inc./data=!4m7!3m6!1s0x88193ad22774b2b5:0x6b61a24222669745!8m2!3d43.5293846!4d-85.7723922!16s%2Fg%2F11b8zhl_8h!19sChIJtbJ0J9I6GYgRRZdmIkKiYWs?authuser=0&hl=en&rclk=1"
"Mid State Towing","106 W Isabella Rd, Midland, MI 48640","Midland","MI","48640","(989) 633-8697","","midstatetowingmi.com","https://www.google.com/maps/place/Mid+State+Towing/data=!4m7!3m6!1s0x8822297519678913:0xc51974dd2a30b9a1!8m2!3d43.6130902!4d-84.3732824!16s%2Fg%2F1ttphhtl!19sChIJE4lnGXUpIogRobkwKt10GcU?authuser=0&hl=en&rclk=1"
"Boulevard & Trumbull Towing - Cars & Heavy Duty Semi Wrecker","2411 Vinewood St, Detroit, MI 48216","Detroit","MI","48216","(800) 841-7841","","boulevardtrumbulltow.com","https://www.google.com/maps/place/Boulevard+%26+Trumbull+Towing+-+Cars+%26+Heavy+Duty+Semi+Wrecker/data=!4m7!3m6!1s0x883b32bc4749625b:0x4c98e81d338f7688!8m2!3d42.3263131!4d-83.094126!16s%2Fg%2F1vfn79wv!19sChIJW2JJR7wyO4gRiHaPMx3omEw?authuser=0&hl=en&rclk=1"
"Grand Rapids Towing","1946 Will Ave NW, Grand Rapids, MI 49504","Grand Rapids","MI","49504","(616) 538-0698","","grtowing.com","https://www.google.com/maps/place/Grand+Rapids+Towing/data=!4m7!3m6!1s0x88184b6b94f6e173:0x67d3dec34d4561fb!8m2!3d42.9988872!4d-85.680438!16s%2Fg%2F1tqtyh63!19sChIJc-H2lGtLGIgR-2FFTcPe02c?authuser=0&hl=en&rclk=1"
"Discount Towing of Midland","60 5 Mile Rd, Midland, MI 48642","Midland","MI","48642","(989) 773-6999","","","https://www.google.com/maps/place/Discount+Towing+of+Midland/data=!4m7!3m6!1s0x882181ebafa32229:0xb44ef073e8e8a1b!8m2!3d43.6186288!4d-84.3487942!16s%2Fg%2F11fll9x5z4!19sChIJKSKjr-uBIYgRG4qOPgfvRAs?authuser=0&hl=en&rclk=1"
"Merl's Towing Service","5510 Clay Ave SW, Grand Rapids, MI 49548","Grand Rapids","MI","49548","(616) 538-1320","","towwestmichigan.com","https://www.google.com/maps/place/Merl%27s+Towing+Service/data=!4m7!3m6!1s0x8819b3f9ed7d8979:0xcf7451d425f32bce!8m2!3d42.8644364!4d-85.6751994!16s%2Fg%2F1tf826c0!19sChIJeYl97fmzGYgRzivzJdRRdM8?authuser=0&hl=en&rclk=1"
"Official Towing","19801 Pleasant St, St Clair Shores, MI 48080","St Clair Shores","MI","48080","(586) 771-6840","","official-towing.com","https://www.google.com/maps/place/Official+Towing/data=!4m7!3m6!1s0x8824d7e7b368a32f:0x6e9479f46e3065f1!8m2!3d42.4716524!4d-82.916357!16s%2Fg%2F1v6p4xv4!19sChIJL6Nos-fXJIgR8WUwbvR5lG4?authuser=0&hl=en&rclk=1"
"A&M Towing Service & Recovery","2075 Austin Dr, Troy, MI 48083","Troy","MI","48083","(248) 588-3640","","amservicecentertowing.com","https://www.google.com/maps/place/A%26M+Towing+Service+%26+Recovery/data=!4m7!3m6!1s0x8824c44d3bc2c0c7:0x754c3ef98c235c82!8m2!3d42.5548577!4d-83.1155962!16s%2Fg%2F126235h29!19sChIJx8DCO03EJIgRglwjjPk-THU?authuser=0&hl=en&rclk=1"
"Best Towing","3689 Fashion Square Blvd #2, Saginaw, MI 48603","Saginaw","MI","48603","(989) 399-0385","","besttowingmi.com","https://www.google.com/maps/place/Best+Towing/data=!4m7!3m6!1s0x8823c2e0b1853c8f:0xdd72dfa6f0719315!8m2!3d43.4606208!4d-83.970993!16s%2Fg%2F1td2n2vt!19sChIJjzyFseDCI4gRFZNx8Kbfct0?authuser=0&hl=en&rclk=1"
"Corey's Big Dog Towing and Recovery","13035 Honor Hwy, Beulah, MI 49617","Beulah","MI","49617","(231) 383-0221","","","https://www.google.com/maps/place/Corey%27s+Big+Dog+Towing+and+Recovery/data=!4m7!3m6!1s0x881e6cdcbecd43d1:0x74bde199847173c4!8m2!3d44.6598641!4d-85.9748589!16s%2Fg%2F1q62mn96f!19sChIJ0UPNvtxsHogRxHNxhJnhvXQ?authuser=0&hl=en&rclk=1"
"American Towing, Inc.","15890 Old U.S. 27, Lansing, MI 48906","Lansing","MI","48906","(517) 482-1959","","lansingautotowing.com","https://www.google.com/maps/place/American+Towing,+Inc./data=!4m7!3m6!1s0x8822ebc75d910941:0x616eadf4d4e917b!8m2!3d42.785782!4d-84.5433063!16s%2Fg%2F11cfhkvgh!19sChIJQQmRXcfrIogRe5FOTd_qFgY?authuser=0&hl=en&rclk=1"
"Gateway towing","18911 Grand River Ave, Detroit, MI 48223","Detroit","MI","48223","(313) 663-2325","","","https://www.google.com/maps/place/Gateway+towing/data=!4m7!3m6!1s0x8824b50ff8ec995d:0x615941ba519c1d9!8m2!3d42.403956!4d-83.226992!16s%2Fg%2F11rk4l49pm!19sChIJXZns-A-1JIgR2cEZpRuUFQY?authuser=0&hl=en&rclk=1"
"Greater Towing & Recovery Tow Truck - Plymouth","10478 N Territorial Rd #101, Plymouth, MI 48170","Plymouth","MI","48170","(734) 891-1818","","greatertowingrecovery.com","https://www.google.com/maps/place/Greater+Towing+%26+Recovery+Tow+Truck+-+Plymouth/data=!4m7!3m6!1s0x8824aad301b34dfb:0xf4fc62bbc9845fb!8m2!3d42.372485!4d-83.557541!16s%2Fg%2F11b6c513b3!19sChIJ-02zAdOqJIgR-0WYvCvGTw8?authuser=0&hl=en&rclk=1"
"Discount Towing","509 Industrial Ave, Mt Pleasant, MI 48858","Mt Pleasant","MI","48858","(989) 773-6999","","","https://www.google.com/maps/place/Discount+Towing/data=!4m7!3m6!1s0x88221cd15aedde17:0x6169aea9597c465!8m2!3d43.6200965!4d-84.7715946!16s%2Fg%2F11f3_t94kl!19sChIJF97tWtEcIogRZcSXleqaFgY?authuser=0&hl=en&rclk=1"
"United Towing","22096 Michigan Ave, Dearborn, MI 48126","Dearborn","MI","48126","(313) 995-1855","","","https://www.google.com/maps/place/United+Towing/data=!4m7!3m6!1s0x883b358685f9bce5:0x74e55d9bb83cb17!8m2!3d42.3063226!4d-83.2458814!16s%2Fg%2F11bwcyf75z!19sChIJ5bz5hYY1O4gRF8uDu9lVTgc?authuser=0&hl=en&rclk=1"
"Budget Towing","876 Railroad St, Ypsilanti, MI 48197","Ypsilanti","MI","48197","(734) 485-2055","","budget-stadiumtowing.com","https://www.google.com/maps/place/Budget+Towing/data=!4m7!3m6!1s0x883ca84b612777b7:0x8cbdb5c16fc0e7a2!8m2!3d42.2540927!4d-83.6187349!16s%2Fg%2F1vpq7kj8!19sChIJt3cnYUuoPIgRoufAb8G1vYw?authuser=0&hl=en&rclk=1"
"Tim's Towing Inc","12937 Riley St, Holland, MI 49424","Holland","MI","49424","(616) 738-2200","","timstowing.net","https://www.google.com/maps/place/Tim%27s+Towing+Inc/data=!4m7!3m6!1s0x88198d7b2a6c82e3:0xca40facdada23157!8m2!3d42.8270999!4d-86.1014119!16s%2Fg%2F11bwfk4tg4!19sChIJ44JsKnuNGYgRVzGirc36QMo?authuser=0&hl=en&rclk=1"
"Twisted Metal Towing LLC","1125 Elm St, Greenville, MI 48838","Greenville","MI","48838","(616) 329-5423","","","https://www.google.com/maps/place/Twisted+Metal+Towing+LLC/data=!4m7!3m6!1s0x8818f149f9e7174b:0x990c093f52b59682!8m2!3d43.168437!4d-85.246864!16s%2Fg%2F11g0mj8g_r!19sChIJSxfn-UnxGIgRgpa1Uj8JDJk?authuser=0&hl=en&rclk=1"
"Northside Service Inc","226 Russell St, Lansing, MI 48906","Lansing","MI","48906","(517) 487-5921","","northsidetowing.net","https://www.google.com/maps/place/Northside+Service+Inc/data=!4m7!3m6!1s0x8822ea5d65985647:0xd3600cbf2b0da14b!8m2!3d42.7550223!4d-84.5552068!16s%2Fg%2F1tcv_0q5!19sChIJR1aYZV3qIogRS6ENK78MYNM?authuser=0&hl=en&rclk=1"
"Lakeside Towing","4355 Plant Dr, Commerce Township, MI 48390","Commerce Township","MI","48390","(248) 363-8356","","lakesidetowingmi.com","https://www.google.com/maps/place/Lakeside+Towing/data=!4m7!3m6!1s0x8824a4c2159b55ab:0x543ad46bec6213dd!8m2!3d42.5727943!4d-83.4421399!16s%2Fg%2F1tg7smxz!19sChIJq1WbFcKkJIgR3RNi7GvUOlQ?authuser=0&hl=en&rclk=1"
"ASAP 24 Hour Towing","825 E Superior St suite b, Alma, MI 48801","Alma","MI","48801","(989) 463-5208","","asapsalesandservice.com","https://www.google.com/maps/place/ASAP+24+Hour+Towing/data=!4m7!3m6!1s0x882215ed14324451:0x7ab190ffe27384f9!8m2!3d43.379047!4d-84.6490229!16s%2Fg%2F11g3_9_kc5!19sChIJUUQyFO0VIogR-YRz4v-QsXo?authuser=0&hl=en&rclk=1"
"Kreager Towing","2993 Carrollton Rd, Saginaw, MI 48604","Saginaw","MI","48604","(989) 272-4545","","kreagertowing.com","https://www.google.com/maps/place/Kreager+Towing/data=!4m7!3m6!1s0x8823c284d5305175:0xd0830e65ee24804!8m2!3d43.4486776!4d-83.9399425!16s%2Fg%2F1thf9572!19sChIJdVEw1YTCI4gRBEjiXuYwCA0?authuser=0&hl=en&rclk=1"
"Henderson Towing & Auto Repair","7765 Eight Mile W, Detroit, MI 48221","Detroit","MI","48221","(313) 837-7777","","hendersontow.com","https://www.google.com/maps/place/Henderson+Towing+%26+Auto+Repair/data=!4m7!3m6!1s0x8824c97fa4bc699f:0x30230aa7485578c8!8m2!3d42.4455857!4d-83.150532!16s%2Fg%2F1tfsthj7!19sChIJn2m8pH_JJIgRyHhVSKcKIzA?authuser=0&hl=en&rclk=1"
"Bob's Towing & Recovery, Inc","906 S Euclid Ave, Bay City, MI 48706","Bay City","MI","48706","(989) 892-1139","","towingbaycity.com","https://www.google.com/maps/place/Bob%27s+Towing+%26+Recovery,+Inc/data=!4m7!3m6!1s0x8823e0621e54af55:0x2006e2da9c28713a!8m2!3d43.5918974!4d-83.9164796!16s%2Fg%2F11xc0pslv!19sChIJVa9UHmLgI4gROnEonNriBiA?authuser=0&hl=en&rclk=1"
"Porter's Towing","18759 Krause St, Riverview, MI 48193","Riverview","MI","48193","(734) 282-8361","","porters-towing.com","https://www.google.com/maps/place/Porter%27s+Towing/data=!4m7!3m6!1s0x883b39f2df1c6dd7:0x1d4bfb5df093a73e!8m2!3d42.1718311!4d-83.1733581!16s%2Fg%2F1tn01xbp!19sChIJ120c3_I5O4gRPqeT8F37Sx0?authuser=0&hl=en&rclk=1"
"Currie's Towing","620 Maple St, Big Rapids, MI 49307","Big Rapids","MI","49307","(231) 796-5351","","curriestowing.com","https://www.google.com/maps/place/Currie%27s+Towing/data=!4m7!3m6!1s0x8818d3c5fff5c461:0xe7578fa5317065a6!8m2!3d43.6995083!4d-85.4740854!16s%2Fg%2F11fhz71g20!19sChIJYcT1_8XTGIgRpmVwMaWPV-c?authuser=0&hl=en&rclk=1"
"Safety First Wrecker Service","5811 S Greenville Rd, Greenville, MI 48838","Greenville","MI","48838","(989) 427-4300","","safetyfirstwrecker.com","https://www.google.com/maps/place/Safety+First+Wrecker+Service/data=!4m7!3m6!1s0x88188d3e34360d09:0xfcfd14e164b0d512!8m2!3d43.2102933!4d-85.2523867!16s%2Fg%2F1yfdr09tq!19sChIJCQ02ND6NGIgREtWwZOEU_fw?authuser=0&hl=en&rclk=1"
"Statewide Towing And Recovery","1532 Jewett Ave, Ann Arbor, MI 48104","Ann Arbor","MI","48104","(734) 649-2582","","statewidetowingrecovery.com","https://www.google.com/maps/place/Statewide+Towing+And+Recovery/data=!4m7!3m6!1s0x883caf80c75840bf:0xa703a47dbb3c9e47!8m2!3d42.2543521!4d-83.726244!16s%2Fg%2F11g2yyv9qf!19sChIJv0BYx4CvPIgRR548u32kA6c?authuser=0&hl=en&rclk=1"
"Reed & Hoppes Towing Inc.","2661 E Grand River Ave, Portland, MI 48875","Portland","MI","48875","(517) 647-4441","","reedandhoppes.com","https://www.google.com/maps/place/Reed+%26+Hoppes+Towing+Inc./data=!4m7!3m6!1s0x8818773c326df689:0x36515971fe67ee6f!8m2!3d42.8862363!4d-85.0216239!16s%2Fg%2F1q67dfktd!19sChIJifZtMjx3GIgRb-5n_nFZUTY?authuser=0&hl=en&rclk=1"
"Abrahamson's Towing","3311 S Brye Rd, Ludington, MI 49431","Ludington","MI","49431","(231) 843-2990","","abrahamsonstowing.com","https://www.google.com/maps/place/Abrahamson%27s+Towing/data=!4m7!3m6!1s0x881c1ad87c981a73:0xba238cb9a85a43d!8m2!3d43.8965606!4d-86.3791275!16s%2Fg%2F11g9fmzsrg!19sChIJcxqYfNgaHIgRPaSFmss4ogs?authuser=0&hl=en&rclk=1"
"Grand Valley Towing","3533 Viaduct St SW Ste A, Grandville, MI 49418","Grandville","MI","49418","(616) 608-7790","","gvtowingservice.com","https://www.google.com/maps/place/Grand+Valley+Towing/data=!4m7!3m6!1s0x8819b06ec06d67f3:0xcb99113bf30f3071!8m2!3d42.9152426!4d-85.7527252!16s%2Fg%2F11hctk375l!19sChIJ82dtwG6wGYgRcTAP8zsRmcs?authuser=0&hl=en&rclk=1"
"Ellis Brothers Towing & Repair","21707 Mac Arthur Blvd, Warren, MI 48089","Warren","MI","48089","(586) 758-7792","","ellisbrotherstowingandrepair.com","https://www.google.com/maps/place/Ellis+Brothers+Towing+%26+Repair/data=!4m7!3m6!1s0x8824d11e20910a1f:0xb1f57d732d057228!8m2!3d42.4560269!4d-83.0185557!16s%2Fg%2F1v3gsjbs!19sChIJHwqRIB7RJIgRKHIFLXN99bE?authuser=0&hl=en&rclk=1"
"LKM Towing","1830 -M40, #20, Holland, MI 49423","Holland","MI","49423","(616) 392-7888","","wmitrucks.com","https://www.google.com/maps/place/LKM+Towing/data=!4m7!3m6!1s0x8819edc798dfbbf3:0xe874c7e9d7b24d8c!8m2!3d42.7368198!4d-86.0653426!16s%2Fg%2F11gfj6pxvy!19sChIJ87vfmMftGYgRjE2y1-nHdOg?authuser=0&hl=en&rclk=1"
"L.I.J.B.S. Towing","6380 Marcus St, Detroit, MI 48211","Detroit","MI","48211","(800) 339-9899","","lijbstowing.com","https://www.google.com/maps/place/L.I.J.B.S.+Towing/data=!4m7!3m6!1s0x8824d3b4da50ede5:0xd0cc900c3fca01fc!8m2!3d42.3958511!4d-83.035469!16s%2Fg%2F1q69z9x83!19sChIJ5e1Q2rTTJIgR_AHKPwyQzNA?authuser=0&hl=en&rclk=1"
"Quality Towing Services","10532 N Mission Rd Ste. A, Clare, MI 48617","Clare","MI","48617","(989) 802-0800","","qualitytowingservices.com","https://www.google.com/maps/place/Quality+Towing+Services/data=!4m7!3m6!1s0x8821f13744fad219:0xc68d0f87092a1ff8!8m2!3d43.7936257!4d-84.7667254!16s%2Fg%2F11fhwxv5ys!19sChIJGdL6RDfxIYgR-B8qCYcPjcY?authuser=0&hl=en&rclk=1"
"Kreager Towing","915 Bayliss St, Midland, MI 48640","Midland","MI","48640","(989) 835-4357","","kreagertowing.com","https://www.google.com/maps/place/Kreager+Towing/data=!4m7!3m6!1s0x8823d5053b2c1eed:0x22f7760c639717a1!8m2!3d43.6093389!4d-84.2228919!16s%2Fg%2F11bw1_q8rm!19sChIJ7R4sOwXVI4gRoReXYwx29yI?authuser=0&hl=en&rclk=1"
"USA Towing And Recovery LLC","16268 Donald Rd, Capac, MI 48014","Capac","MI","48014","(586) 531-0384","","","https://www.google.com/maps/place/USA+Towing+And+Recovery+LLC/data=!4m7!3m6!1s0x882455efe71b6395:0x58dc54cc8a49b0fa!8m2!3d42.9976772!4d-82.9785279!16s%2Fg%2F11p_2w5hbh!19sChIJlWMb5-9VJIgR-rBJisxU3Fg?authuser=0&hl=en&rclk=1"
"Premier Towing and Recovery","13889 West St, Cedar Springs, MI 49319","Cedar Springs","MI","49319","(616) 696-9800","","premiertowingmi.com","https://www.google.com/maps/place/Premier+Towing+and+Recovery/data=!4m7!3m6!1s0x8818fce7fae6a045:0x7c79d75296731c7f!8m2!3d43.217927!4d-85.561357!16s%2Fg%2F1tx47nmh!19sChIJRaDm-uf8GIgRfxxzllLXeXw?authuser=0&hl=en&rclk=1"
"J & K Roadside Assistance LLC","1177 O E Bieri Industrial Dr, Lowell, MI 49331","Lowell","MI","49331","(616) 690-0983","","jandkroadsideservice.com","https://www.google.com/maps/place/J+%26+K+Roadside+Assistance+LLC/data=!4m7!3m6!1s0x881845a8a5533735:0xb551e3c7894a9ada!8m2!3d42.9442399!4d-85.3517766!16s%2Fg%2F11c5h2n0gb!19sChIJNTdTpahFGIgR2ppKicfjUbU?authuser=0&hl=en&rclk=1"
"Phil's Towing","6405 W M-72 Hwy, Grayling, MI 49738","Grayling","MI","49738","(989) 348-8787","","philstowingandautomotive.com","https://www.google.com/maps/place/Phil%27s+Towing/data=!4m7!3m6!1s0x882010ca488d1d69:0x7c5193d6c9a0b3ae!8m2!3d44.6547633!4d-84.7356726!16s%2Fg%2F1x5qtd58!19sChIJaR2NSMoQIIgRrrOgydaTUXw?authuser=0&hl=en&rclk=1"
"Auto Solutions Towing","4255 N Clare Ave, Harrison, MI 48625","Harrison","MI","48625","(989) 339-5559","","joesautosolutions.com","https://www.google.com/maps/place/Auto+Solutions+Towing/data=!4m7!3m6!1s0x8821dd1b266de8eb:0xbff2b03c39822bcb!8m2!3d44.0508749!4d-84.8090179!16s%2Fg%2F11pd0s8dmn!19sChIJ6-htJhvdIYgRyyuCOTyw8r8?authuser=0&hl=en&rclk=1"
"Ryan's Towing","10849 Northland Dr NE, Rockford, MI 49341","Rockford","MI","49341","(616) 863-6062","","ryanstowing.com","https://www.google.com/maps/place/Ryan%27s+Towing/data=!4m7!3m6!1s0x8818fc322cef8105:0x5720c70672ba822!8m2!3d43.1619744!4d-85.5512218!16s%2Fg%2F11b77yr3hh!19sChIJBYHvLDL8GIgRIqgrZ3AMcgU?authuser=0&hl=en&rclk=1"
"Javion & Sams 24 Hour Towing","2416 Hubbard St, Detroit, MI 48216","Detroit","MI","48216","(313) 842-7600","","","https://www.google.com/maps/place/Javion+%26+Sams+24+Hour+Towing/data=!4m7!3m6!1s0x883b32bc4749625b:0xc03d79fa1e865f7b!8m2!3d42.3256648!4d-83.0941238!16s%2Fg%2F1tdgqhgs!19sChIJW2JJR7wyO4gRe1-GHvp5PcA?authuser=0&hl=en&rclk=1"
"D & N Garage, Inc","4929 M-76, Alger, MI 48610","Alger","MI","48610","(989) 345-2118","","dntowing.com","https://www.google.com/maps/place/D+%26+N+Garage,+Inc/data=!4m7!3m6!1s0x8821032c389464b7:0x5b27798cf01e8b70!8m2!3d44.1930382!4d-84.167798!16s%2Fg%2F11n095420g!19sChIJt2SUOCwDIYgRcIse8Ix5J1s?authuser=0&hl=en&rclk=1"
"UNIVERSITY AUTO TOWING AND RECOVERY","939 Farmer St, Detroit, MI 48226","Detroit","MI","48226","(313) 425-5086","","","https://www.google.com/maps/place/UNIVERSITY+AUTO+TOWING+AND+RECOVERY/data=!4m7!3m6!1s0x8824d3a3fa0107db:0xbd4ba6a61b0738b7!8m2!3d42.3322918!4d-83.0443783!16s%2Fg%2F11rwr0g3g_!19sChIJ2wcB-qPTJIgRtzgHG6amS70?authuser=0&hl=en&rclk=1"
"Central Michigan Towing","8151 Rolling Dr, Lake, MI 48632","Lake","MI","48632","(989) 588-6180","","tonster2255.wixsite.com","https://www.google.com/maps/place/Central+Michigan+Towing/data=!4m7!3m6!1s0x8821e3ddb32af23f:0x3c8ea11614737eed!8m2!3d43.816595!4d-85.011977!16s%2Fg%2F1yghbv_my!19sChIJP_Iqs93jIYgR7X5zFBahjjw?authuser=0&hl=en&rclk=1"
"Lakeside Towing & Recovery","624 E Savidge St, Spring Lake, MI 49456","Spring Lake","MI","49456","(616) 842-8940","","lakesidetowingsl.com","https://www.google.com/maps/place/Lakeside+Towing+%26+Recovery/data=!4m7!3m6!1s0x88198183152550e3:0x2b6b0f7f73964ee!8m2!3d43.0757217!4d-86.1839218!16s%2Fg%2F1v2gfcdf!19sChIJ41AlFYOBGYgR7mQ59_ewtgI?authuser=0&hl=en&rclk=1"
"Auburn Towing & Repair","108 S Auburn St, Auburn, MI 48611","Auburn","MI","48611","(989) 686-4161","","towingbaycity.com","https://www.google.com/maps/place/Auburn+Towing+%26+Repair/data=!4m7!3m6!1s0x8823d9fd67dfaca7:0xeff878bb3dc1997d!8m2!3d43.6028238!4d-84.0695274!16s%2Fg%2F11svgmk7qq!19sChIJp6zfZ_3ZI4gRfZnBPbt4-O8?authuser=0&hl=en&rclk=1"
"Omar's Towing","9060 Osmo St, Kaleva, MI 49645","Kaleva","MI","49645","(231) 651-0746","","towingkaleva.com","https://www.google.com/maps/place/Omar%27s+Towing/data=!4m7!3m6!1s0x881e61626c99bdb3:0xdbf2cbca9fefbb1a!8m2!3d44.3709213!4d-86.0104581!16s%2Fg%2F11lkj1m83n!19sChIJs72ZbGJhHogRGrvvn8rL8ts?authuser=0&hl=en&rclk=1"
"Poe's Towing Services","1069 S Main St, Adrian, MI 49221","Adrian","MI","49221","(517) 263-3700","","poestowing.com","https://www.google.com/maps/place/Poe%27s+Towing+Services/data=!4m7!3m6!1s0x883cf109f65d50bd:0x335f2b43a94215ba!8m2!3d41.8824296!4d-84.0429125!16s%2Fg%2F1tgq79_f!19sChIJvVBd9gnxPIgRuhVCqUMrXzM?authuser=0&hl=en&rclk=1"
"Tri-City Towing Service LLC","431 N Griffin St Suite 2, Grand Haven, MI 49417","Grand Haven","MI","49417","(616) 842-9610","","","https://www.google.com/maps/place/Tri-City+Towing+Service+LLC/data=!4m7!3m6!1s0x881981107657d8fd:0x1fbcaf72a319db1a!8m2!3d43.0662231!4d-86.2112106!16s%2Fg%2F1tjdmbxj!19sChIJ_dhXdhCBGYgRGtsZo3KvvB8?authuser=0&hl=en&rclk=1"
"Petoskey Towing","58 Bridge St, Petoskey, MI 49770","Petoskey","MI","49770","(231) 347-1803","","","https://www.google.com/maps/place/Petoskey+Towing/data=!4m7!3m6!1s0x4d4a8509680002bd:0x61c61b3da7d9d63!8m2!3d45.3687473!4d-84.962767!16s%2Fg%2F11h15_8tyw!19sChIJvQIAaAmFSk0RY5192rNhHAY?authuser=0&hl=en&rclk=1"
"Captain Hooks Towing and Recovery","715 N Lafayette St, Greenville, MI 48838","Greenville","MI","48838","(616) 754-4808","","","https://www.google.com/maps/place/Captain+Hooks+Towing+and+Recovery/data=!4m7!3m6!1s0x88188cde97704457:0xdfc7648dacbd7760!8m2!3d43.188482!4d-85.2552346!16s%2Fg%2F11bzt1qbtx!19sChIJV0Rwl96MGIgRYHe9rI1kx98?authuser=0&hl=en&rclk=1"
"Cheboygan Towing","1371 Mackinaw Ave, Cheboygan, MI 49721","Cheboygan","MI","49721","(231) 627-5227","","cheboygantowingandrecovery.com","https://www.google.com/maps/place/Cheboygan+Towing/data=!4m7!3m6!1s0x4d359653243d6d47:0x55761daad5de66d3!8m2!3d45.6582255!4d-84.4916825!16s%2Fg%2F11b6xf7wlk!19sChIJR209JFOWNU0R02be1aoddlU?authuser=0&hl=en&rclk=1"
"Detroit Towing Group","33414 Kelly Rd, Clinton Township, MI 48035","Clinton Township","MI","48035","(586) 405-0613","","detroittowinggroup.com","https://www.google.com/maps/place/Detroit+Towing+Group/data=!4m7!3m6!1s0x8824d8ecabc47b71:0x42d61bdc23defe3b!8m2!3d42.5430763!4d-82.9291535!16s%2Fg%2F11c5b2lhy6!19sChIJcXvEq-zYJIgRO_7eI9wb1kI?authuser=0&hl=en&rclk=1"
"Peterson's Towing","324 N Mitchell St, Cadillac, MI 49601","Cadillac","MI","49601","(231) 775-8681","","petersonstow.com","https://www.google.com/maps/place/Peterson%27s+Towing/data=!4m7!3m6!1s0x881f08e0d5ba1147:0x12227f8ee3f128f9!8m2!3d44.2529513!4d-85.4010354!16s%2Fg%2F1tcylngy!19sChIJRxG61eAIH4gR-Sjx445_IhI?authuser=0&hl=en&rclk=1"
"Reliable Towing Services","1288 9th St, Muskegon, MI 49440","Muskegon","MI","49440","(231) 722-1309","","facebook.com","https://www.google.com/maps/place/Reliable+Towing+Services/data=!4m7!3m6!1s0x881bd62b3a0d1783:0xb5b4cefcde127056!8m2!3d43.2293468!4d-86.2593077!16s%2Fg%2F1tgq7805!19sChIJgxcNOivWG4gRVnAS3vzOtLU?authuser=0&hl=en&rclk=1"
"Statewide Towing and Auto Recovery","12907 Pleasanton Hwy, Bear Lake, MI 49614","Bear Lake","MI","49614","(231) 233-4834","","","https://www.google.com/maps/place/Statewide+Towing+and+Auto+Recovery/data=!4m7!3m6!1s0x881e7b0fa0bc2453:0xcaeaad05d68dbe54!8m2!3d44.4294177!4d-86.1297852!16s%2Fg%2F11bzxymrk9!19sChIJUyS8oA97HogRVL6N1gWt6so?authuser=0&hl=en&rclk=1"
"M57 Towing & Auto Repair","12458 Vienna Rd, Montrose, MI 48457","Montrose","MI","48457","(810) 639-9999","","facebook.com","https://www.google.com/maps/place/M57+Towing+%26+Auto+Repair/data=!4m7!3m6!1s0x882397fd056a6bad:0x536cf1bafb736705!8m2!3d43.1765072!4d-83.9300536!16s%2Fg%2F1tjmf85p!19sChIJrWtqBf2XI4gRBWdz-7rxbFM?authuser=0&hl=en&rclk=1"
"GENERAL TOWING INC","2290 Auburn Rd, Auburn Hills, MI 48326","Auburn Hills","MI","48326","(248) 338-3700","","generaltowinginc.com","https://www.google.com/maps/place/GENERAL+TOWING+INC/data=!4m7!3m6!1s0x8824c07a4badf613:0xe4708f2f6dc65963!8m2!3d42.633424!4d-83.2435901!16s%2Fg%2F1vppt446!19sChIJE_atS3rAJIgRY1nGbS-PcOQ?authuser=0&hl=en&rclk=1"
"AuSable Towing & Recovery","4365 M-72, Grayling, MI 49738","Grayling","MI","49738","(989) 344-8698","","ausabletowing.com","https://www.google.com/maps/place/AuSable+Towing+%26+Recovery/data=!4m7!3m6!1s0x8820138ca17e14f5:0xda6e05b1e655ac21!8m2!3d44.6559181!4d-84.6955032!16s%2Fg%2F11b6hq0rnr!19sChIJ9RR-oYwTIIgRIaxV5rEFbto?authuser=0&hl=en&rclk=1"
"East Beltline Towing and Service, Inc.","5277 Plainfield Ave NE Suite 100, Grand Rapids, MI 49525","Grand Rapids","MI","49525","(616) 942-5210","","eastbeltlinetowing.net","https://www.google.com/maps/place/East+Beltline+Towing+and+Service,+Inc./data=!4m7!3m6!1s0x8818552182d8c9a3:0xbd7c7164f6c94b47!8m2!3d43.0573928!4d-85.5848178!16s%2Fg%2F1t_tkxkv!19sChIJo8nYgiFVGIgRR0vJ9mRxfL0?authuser=0&hl=en&rclk=1"
"Tapper Towing LLC","125 W Michigan Ave, Paw Paw, MI 49079","Paw Paw","MI","49079","(269) 415-0285","","towtruckpawpawmi.com","https://www.google.com/maps/place/Tapper+Towing+LLC/data=!4m7!3m6!1s0x88176a4b799092ed:0x10fc20d91d5ecfc9!8m2!3d42.217696!4d-85.8942236!16s%2Fg%2F1tgfx751!19sChIJ7ZKQeUtqF4gRyc9eHdkg_BA?authuser=0&hl=en&rclk=1"
"Nelson's Towing","6314 Blakely Dr NE, Rockford, MI 49341","Rockford","MI","49341","(616) 866-0503","","nelsonstowingrockford.com","https://www.google.com/maps/place/Nelson%27s+Towing/data=!4m7!3m6!1s0x8818552d9d96b955:0x2e7d381859cb4332!8m2!3d43.0776532!4d-85.5306073!16s%2Fg%2F11jz7n71mc!19sChIJVbmWnS1VGIgRMkPLWRg4fS4?authuser=0&hl=en&rclk=1"
"I-96 Towing & Repair","7770 S State Rd, Portland, MI 48875","Portland","MI","48875","(616) 374-0123","","i96towing.com","https://www.google.com/maps/place/I-96+Towing+%26+Repair/data=!4m7!3m6!1s0x88186d19f0fa703d:0x1778107655afb82b!8m2!3d42.8750728!4d-85.075901!16s%2Fg%2F1wrtdgg_!19sChIJPXD68BltGIgRK7ivVXYQeBc?authuser=0&hl=en&rclk=1"
"Newaygo Towing","8119 Mason Dr, Newaygo, MI 49337","Newaygo","MI","49337","(231) 652-9454","","towingnewaygo.com","https://www.google.com/maps/place/Newaygo+Towing/data=!4m7!3m6!1s0x88193d7e4adb9685:0x495ca294ac58e2e7!8m2!3d43.4082507!4d-85.8052841!16s%2Fg%2F1xfspbq_!19sChIJhZbbSn49GYgR5-JYrJSiXEk?authuser=0&hl=en&rclk=1"
"Michigan Off Road Recovery","112 Fisher St, Bay City, MI 48706","Bay City","MI","48706","(989) 279-0709","","michiganoffroadrecovery.com","https://www.google.com/maps/place/Michigan+Off+Road+Recovery/data=!4m7!3m6!1s0x8823e106d942fb4d:0x32079feedc7aaf60!8m2!3d43.5949197!4d-83.9065882!16s%2Fg%2F11ryjsrglv!19sChIJTftC2QbhI4gRYK963O6fBzI?authuser=0&hl=en&rclk=1"
"General Towing & Recovery LLC","6369 N Dort Hwy, Mt Morris, MI 48458","Mt Morris","MI","48458","(810) 686-8200","","","https://www.google.com/maps/place/General+Towing+%26+Recovery+LLC/data=!4m7!3m6!1s0x8823869e13980379:0xc3dd6121104bcd2e!8m2!3d43.1008823!4d-83.6763689!16s%2Fg%2F1tkl3yf0!19sChIJeQOYE56GI4gRLs1LECFh3cM?authuser=0&hl=en&rclk=1"
"T&J's Towing & Hauling LLC","10229 S Graham Rd, St Charles, MI 48655","St Charles","MI","48655","(989) 239-6980","","tandjtowingmi.com","https://www.google.com/maps/place/T%26J%27s+Towing+%26+Hauling+LLC/data=!4m7!3m6!1s0x8823a457be8892d5:0x1c3a5ea6afe76443!8m2!3d43.2757067!4d-84.1530189!16s%2Fg%2F124y9xzqn!19sChIJ1ZKIvlekI4gRQ2Tnr6ZeOhw?authuser=0&hl=en&rclk=1"
"Brewer's Towing","1763 Plymouth Rd, Ann Arbor, MI 48105","Ann Arbor","MI","48105","(734) 665-8888","","brewerstowing.com","https://www.google.com/maps/place/Brewer%27s+Towing/data=!4m7!3m6!1s0x883cae7e2c9e5bd9:0x6450cb500ca8c0ad!8m2!3d42.2983651!4d-83.7201144!16s%2Fg%2F11bymzs5s6!19sChIJ2VueLH6uPIgRrcCoDFDLUGQ?authuser=0&hl=en&rclk=1"
"Scoob's Towing, LLC","11421 Birch Dr, Lakeview, MI 48850","Lakeview","MI","48850","(616) 318-7842","","facebook.com","https://www.google.com/maps/place/Scoob%27s+Towing,+LLC/data=!4m7!3m6!1s0xa68713bc4e0f6771:0xfc64d3ff7fc2abe4!8m2!3d43.459279!4d-85.2136107!16s%2Fg%2F11jzkwq3qw!19sChIJcWcPTrwTh6YR5KvCf__TZPw?authuser=0&hl=en&rclk=1"
"Price’s Towing & Auto salvage","2735 S Center Rd, Saginaw, MI 48609","Saginaw","MI","48609","(989) 792-3938","","","https://www.google.com/maps/place/Price%E2%80%99s+Towing+%26+Auto+salvage/data=!4m7!3m6!1s0x8823c1629fb5f6fb:0xf28639d775fc9b44!8m2!3d43.3831945!4d-84.0113718!16s%2Fg%2F11r253wwdl!19sChIJ-_a1n2LBI4gRRJv8ddc5hvI?authuser=0&hl=en&rclk=1"
"Berry's & Gillikin's Towing- North","5480 W River Dr NE, Comstock Park, MI 49321","Comstock Park","MI","49321","(616) 363-9500","","berrysgillikinstowing.com","https://www.google.com/maps/place/Berry%27s+%26+Gillikin%27s+Towing-+North/data=!4m7!3m6!1s0x8819abd94616ad2f:0x9a2d182c88a6a6a0!8m2!3d43.0613126!4d-85.6358706!16s%2Fg%2F11h32_c61t!19sChIJL60WRtmrGYgRoKamiCwYLZo?authuser=0&hl=en&rclk=1"
"HD Towing LLC","3424 Pointer Rd, West Branch, MI 48661","West Branch","MI","48661","(989) 345-0135","","","https://www.google.com/maps/place/HD+Towing+LLC/data=!4m7!3m6!1s0x8821ab66dd5511f3:0x1ac77f02266ca7ff!8m2!3d44.2332343!4d-84.3062783!16s%2Fg%2F11rqx_w8hh!19sChIJ8xFV3WarIYgR_6dsJgJ_xxo?authuser=0&hl=en&rclk=1"
"Pro Towing & Sales","7836 US-2, Rapid River, MI 49878","Rapid River","MI","49878","(906) 474-2220","","2and41trailersales.com","https://www.google.com/maps/place/Pro+Towing+%26+Sales/data=!4m7!3m6!1s0x4d4dc61a35932035:0x3cfcd96e13df107a!8m2!3d45.9266801!4d-86.969097!16s%2Fg%2F11jlzz6z9r!19sChIJNSCTNRrGTU0RehDfE27Z_Dw?authuser=0&hl=en&rclk=1"
"Frontline Towing & Recovery","7880 Federal Rd, Howard City, MI 49329","Howard City","MI","49329","(989) 287-2278","","frontlinetow.com","https://www.google.com/maps/place/Frontline+Towing+%26+Recovery/data=!4m7!3m6!1s0x8818ed3dca049953:0xe0974973a4f2db62!8m2!3d43.4092298!4d-85.4660109!16s%2Fg%2F11j8wmhrdr!19sChIJU5kEyj3tGIgRYtvypHNJl-A?authuser=0&hl=en&rclk=1"
"Nationwide Towing & Heavy Duty Semi Truck Wrecker","191 Hiscock St, Ann Arbor, MI 48103","Ann Arbor","MI","48103","(734) 492-5800","","towmycarannarbor.com","https://www.google.com/maps/place/Nationwide+Towing+%26+Heavy+Duty+Semi+Truck+Wrecker/data=!4m7!3m6!1s0x883caffdd6df89c1:0xce57624fa2890212!8m2!3d42.2880519!4d-83.7499531!16s%2Fg%2F11fl8y14zr!19sChIJwYnf1v2vPIgREgKJok9iV84?authuser=0&hl=en&rclk=1"
"Jeromes Towing & Heavy Duty Recovery","5157 US-23, Alpena, MI 49707","Alpena","MI","49707","(989) 356-6708","","","https://www.google.com/maps/place/Jeromes+Towing+%26+Heavy+Duty+Recovery/data=!4m7!3m6!1s0x4d335962f860d201:0x2ec89c46f1d32099!8m2!3d45.122464!4d-83.446299!16s%2Fg%2F1v6l73mr!19sChIJAdJg-GJZM00RmSDT8UacyC4?authuser=0&hl=en&rclk=1"
"Frontline Towing & Recovery","628 E Lake St, Stanton, MI 48888","Stanton","MI","48888","(989) 287-2278","","frontlinetow.com","https://www.google.com/maps/place/Frontline+Towing+%26+Recovery/data=!4m7!3m6!1s0x88189b28e3fb2c55:0xf26bb2dc7a67b15a!8m2!3d43.2901569!4d-85.0748576!16s%2Fg%2F11qb50lfz2!19sChIJVSz74yibGIgRWrFnetyya_I?authuser=0&hl=en&rclk=1"
"Lenny & Squiggy’s Towing","1021 Owen Mumaw Industrial Dr, Greenville, MI 48838","Greenville","MI","48838","(616) 754-9450","","","https://www.google.com/maps/place/Lenny+%26+Squiggy%E2%80%99s+Towing/data=!4m7!3m6!1s0x88188d2bc54fe9b7:0x955e2b85be53a813!8m2!3d43.1971792!4d-85.2690245!16s%2Fg%2F1v7tl_5g!19sChIJt-lPxSuNGIgRE6hTvoUrXpU?authuser=0&hl=en&rclk=1"
"Oceana Auto LLC","709 S Emily St, Ludington, MI 49431","Ludington","MI","49431","(231) 843-6500","","oceana-auto.com","https://www.google.com/maps/place/Oceana+Auto+LLC/data=!4m7!3m6!1s0x881c10c0c386b629:0xdc567f16d95e98f8!8m2!3d43.9486417!4d-86.4406826!16s%2Fg%2F1tfv14x0!19sChIJKbaGw8AQHIgR-Jhe2RZ_Vtw?authuser=0&hl=en&rclk=1"
"Big Rapids Towing","20833 18 Mile Rd, Big Rapids, MI 49307","Big Rapids","MI","49307","(231) 796-2222","","bigrapidstowing.net","https://www.google.com/maps/place/Big+Rapids+Towing/data=!4m7!3m6!1s0x881f2c93b9bdfb3f:0x57200ebcea7ca7e3!8m2!3d43.7278137!4d-85.501007!16s%2Fg%2F1td5xs5l!19sChIJP_u9uZMsH4gR46d86rwOIFc?authuser=0&hl=en&rclk=1"
"M&M Towing","850 E Emmett St, Battle Creek, MI 49014","Battle Creek","MI","49014","(269) 753-0000","","mandmtowing247.com","https://www.google.com/maps/place/M%26M+Towing/data=!4m7!3m6!1s0x8817f0f8acff8103:0xccef0f67155e2ecc!8m2!3d42.3310099!4d-85.1423134!16s%2Fg%2F1td3m60t!19sChIJA4H_rPjwF4gRzC5eFWcP78w?authuser=0&hl=en&rclk=1"
"Sunrise Side Towing","208 Saginaw St, Sterling, MI 48659","Sterling","MI","48659","(989) 654-3333","","sunrisesidetowing.com","https://www.google.com/maps/place/Sunrise+Side+Towing/data=!4m7!3m6!1s0x8821114996fa1b7d:0x974ce617aa100ec4!8m2!3d44.0337877!4d-84.0229425!16s%2Fg%2F1tp2__b3!19sChIJfRv6lkkRIYgRxA4QqhfmTJc?authuser=0&hl=en&rclk=1"
"The Royal Oak Towing Company","303 E Harrison Ave, Royal Oak, MI 48067","Royal Oak","MI","48067","(248) 720-6637","","royaloaktowing.org","https://www.google.com/maps/place/The+Royal+Oak+Towing+Company/data=!4m7!3m6!1s0x8824cfb00a4bd015:0xfede91a0e5b29aa7!8m2!3d42.4805457!4d-83.1413955!16s%2Fg%2F11q39xf93t!19sChIJFdBLCrDPJIgRp5qy5aCR3v4?authuser=0&hl=en&rclk=1"
"Gaylord Towing","501 N Center Ave, Gaylord, MI 49735","Gaylord","MI","49735","(989) 858-1695","","","https://www.google.com/maps/place/Gaylord+Towing/data=!4m7!3m6!1s0x4d35453672a2cf37:0x4412e9885fda1295!8m2!3d45.0324375!4d-84.6742152!16s%2Fg%2F11vyvtnqz0!19sChIJN8-icjZFNU0RlRLaX4jpEkQ?authuser=0&hl=en&rclk=1"
"Michigan Truck Towing & Recovery","","","","","(517) 936-8791","","michigantrucktowingandrecovery.com","https://www.google.com/maps/place/Michigan+Truck+Towing+%26+Recovery/data=!4m7!3m6!1s0x883d21c8975e7ca5:0x6f7e6516fca1061b!8m2!3d42.2363785!4d-84.2948195!16s%2Fg%2F11c3tcw_56!19sChIJpXxel8ghPYgRGwah_BZlfm8?authuser=0&hl=en&rclk=1"
"Ramos Towing","2444 S Getty St, Muskegon, MI 49444","Muskegon","MI","49444","(231) 733-1597","","ramosautobody.com","https://www.google.com/maps/place/Ramos+Towing/data=!4m7!3m6!1s0x88197dc842508627:0x890abc13d479444d!8m2!3d43.207611!4d-86.2242202!16s%2Fg%2F1hhxrhtpl!19sChIJJ4ZQQsh9GYgRTUR51BO8Cok?authuser=0&hl=en&rclk=1"
"Hill Top Towing","7275 W Remus Rd, Mt Pleasant, MI 48858","Mt Pleasant","MI","48858","(989) 330-9358","","","https://www.google.com/maps/place/Hill+Top+Towing/data=!4m7!3m6!1s0x8818a9617ffd9dd3:0x95527ac58a4ae0a0!8m2!3d43.5958698!4d-84.9926731!16s%2Fg%2F11p61rxb04!19sChIJ0539f2GpGIgRoOBKisV6UpU?authuser=0&hl=en&rclk=1"
"Gene's Towing & Recovery","711 Stephenson Ave, Escanaba, MI 49829","Escanaba","MI","49829","(906) 786-0004","","genestowingandrecovery.com","https://www.google.com/maps/place/Gene%27s+Towing+%26+Recovery/data=!4m7!3m6!1s0x4d4dbda1d9255f91:0x97d3cd08bc885d72!8m2!3d45.7543173!4d-87.0722434!16s%2Fg%2F11fn8sqnng!19sChIJkV8l2aG9TU0Rcl2IvAjN05c?authuser=0&hl=en&rclk=1"
"Lansing Towing & Recovery","","","","","(517) 272-9717","","","https://www.google.com/maps/place/Lansing+Towing+%26+Recovery/data=!4m7!3m6!1s0x8822c147b882c465:0xedadb9b3b3cf09d2!8m2!3d42.7009694!4d-84.5224345!16s%2Fg%2F11t4z1fc6p!19sChIJZcSCuEfBIogR0gnPs7O5re0?authuser=0&hl=en&rclk=1"
"Great Lakes Towing and Recovery","32984 Ford Rd, Westland, MI 48185","Westland","MI","48185","(734) 397-1529","","","https://www.google.com/maps/place/Great+Lakes+Towing+and+Recovery/data=!4m7!3m6!1s0x883b4cf0d71c61a3:0xc48e598157d1564e!8m2!3d42.3251794!4d-83.3662565!16s%2Fg%2F1pp2x6xrk!19sChIJo2Ec1_BMO4gRTlbRV4FZjsQ?authuser=0&hl=en&rclk=1"
"TC Towing & Recovery","697 Mizar Ct, Traverse City, MI 49685","Traverse City","MI","49685","(231) 932-0532","","tctowingandrecovery.com","https://www.google.com/maps/place/TC+Towing+%26+Recovery/data=!4m7!3m6!1s0x881e338622871b01:0x9f21c5b91e8936ff!8m2!3d44.696771!4d-85.653855!16s%2Fg%2F11byl1rw29!19sChIJARuHIoYzHogR_zaJHrnFIZ8?authuser=0&hl=en&rclk=1"
"A-One Towing of Flint","2726 W Court St, Flint, MI 48503","Flint","MI","48503","(810) 235-7947","","","https://www.google.com/maps/place/A-One+Towing+of+Flint/data=!4m7!3m6!1s0x8823838116b4cfa1:0xa61fd68c9f575c2f!8m2!3d43.0071642!4d-83.725704!16s%2Fg%2F11h05dpgm_!19sChIJoc-0FoGDI4gRL1xXn4zWH6Y?authuser=0&hl=en&rclk=1"
